STARLINK-36847          
1 67910U 26036G   26069.71764780  .00746207  00000+0  32372-2 0  9997
2 67910  42.9984 243.4479 0006852 247.8236 112.1909 15.82097162  3835
STARLINK-36736          
1 67911U 26036H   26069.84300799  .00209877  00000+0  97248-3 0  9999
2 67911  42.9994 242.6667 0001243 279.5727  80.5004 15.82077629  3855
STARLINK-36676          
1 67912U 26036J   26069.84225264  .00319016  00000+0  14538-2 0  9990
2 67912  42.9985 242.6598 0001842 281.9700  78.0965 15.82142638  3853
STARLINK-36690          
1 67913U 26036K   26069.77837160  .00347378  00000+0  15769-2 0  9996
2 67913  42.9982 243.0398 0001209 254.9348 105.1390 15.82151648  3843
STARLINK-36724          
1 67914U 26036L   26069.83999520  .00630705  00000+0  27493-2 0  9999
2 67914  42.9985 242.6402 0001554 269.7029  90.3665 15.82293235  3851
STARLINK-36723          
1 67915U 26036M   26069.77762314  .00410484  00000+0  18486-2 0  9994
2 67915  42.9988 243.0347 0001566 309.0105  51.0627 15.82158621  3844
STARLINK-36721          
1 67916U 26036N   26068.95539840  .00366391  00000+0  16598-2 0  9999
2 67916  42.9991 248.0530 0002047 267.6120  92.4517 15.82146319  3713
STARLINK-36722          
1 67917U 26036P   26069.83851443  .00531298  00000+0  23595-2 0  9999
2 67917  42.9984 242.6288 0002027 314.2120  45.8585 15.82148661  3857
STARLINK-36341          
1 67918U 26036Q   26068.89018697  .00777423  00000+0  33126-2 0  9994
2 67918  42.9987 248.4207 0002259 306.3888  53.6775 15.82409136  3705
STARLINK-36663          
1 67919U 26036R   26069.83775979  .00174897  00000+0  81405-3 0  9993
2 67919  42.9983 242.6233 0001551 269.1890  90.8804 15.82079097  3851
STARLINK-36375          
1 67920U 26036S   26069.83626243  .00302702  00000+0  13843-2 0  9992
2 67920  42.9990 242.6117 0000691 277.9892  82.0901 15.82109736  3850
STARLINK-36405          
1 67921U 26036T   26069.83334490 -.01888988  00000+0 -14934-1 0  9992
2 67921  42.9992 242.6933 0001654 272.9973  45.5276 15.73774164  3834
